OBJECT_NAME,OBJECT_ID,EPOCH,MEAN_MOTION,ECCENTRICITY,INCLINATION,RA_OF_ASC_NODE,ARG_OF_PERICENTER,MEAN_ANOMALY,EPHEMERIS_TYPE,CLASSIFICATION_TYPE,NORAD_CAT_ID,ELEMENT_SET_NO,REV_AT_EPOCH,BSTAR,MEAN_MOTION_DOT,MEAN_MOTION_DDOT
HST,1990-037B,2026-06-09T06:06:10.692288,15.30659901,.0001992,28.4711,134.7882,63.4353,296.6447,0,U,20580,999,78735,.15014E-3,.481E-4,0
POLAR,1996-013A,2026-06-09T08:02:02.163264,1.29846146,.64627886,79.8443,227.1442,209.3515,89.3681,0,U,23802,999,14475,0,.117E-5,0
SWAS,1998-071A,2026-06-09T15:51:23.844096,15.09580136,.00089501,69.8963,246.9275,266.7504,93.2636,0,U,25560,999,49613,.2295576E-3,.3594E-4,0
CXO,1999-040B,2026-06-10T10:37:10.661664,0.37805334,.78525481,56.0540,116.8503,310.2578,0.2529,0,U,25867,999,1729,0,.667E-5,0
XMM-NEWTON,1999-066A,2026-06-10T08:49:38.702784,0.50122831,.46777641,64.5271,283.0748,65.0342,0.0416,0,U,25989,999,2297,0,.89E-6,0
TERRA,1999-068A,2026-06-09T20:04:20.330688,14.61097233,.00010329,97.9459,210.6738,222.6063,248.3946,0,U,25994,999,40853,.77920197E-4,.339E-5,0
CLUSTER II-FM7 (SAMBA),2000-041A,2026-06-10T10:42:37.438560,0.44840364,.90481912,149.9132,49.6129,266.6863,359.9829,0,U,26410,999,2028,0,.4459E-4,0
CLUSTER II-FM8 (TANGO),2000-045B,2026-06-08T10:24:22.303008,0.44405778,.90496582,150.1534,50.2668,267.1780,3.1902,0,U,26464,999,2027,0,.4389E-4,0
ODIN,2001-007A,2026-06-09T15:48:45.021888,15.73332521,.00063873,97.3859,201.1295,152.3614,207.7991,0,U,26702,999,38821,.1096046E-2,.153746E-2,0
TIMED,2001-055B,2026-06-09T17:10:19.556832,14.95278568,.00006992,74.0678,250.0622,349.3341,10.7829,0,U,26998,999,32970,.11285338E-3,.1204E-4,0
CORIOLIS,2003-001A,2026-06-09T17:28:08.894208,14.19942820,.00130427,98.7125,167.7265,231.4982,128.5026,0,U,27640,999,21316,.63623229E-4,.92E-6,0
SORCE,2003-004A,2026-06-09T16:49:34.739328,15.03673144,.00175811,39.9917,304.3883,353.9939,6.0642,0,U,27651,999,27077,.19856371E-3,.2624E-4,0
MOST,2003-031D,2026-06-09T17:58:53.237856,14.21320954,.00086841,98.7045,168.5790,274.7342,85.2844,0,U,27843,999,18965,.49395862E-4,.64E-6,0
SCISAT 1,2003-036A,2026-06-09T12:39:13.420224,14.81440170,.00086814,73.9286,186.5623,255.6810,104.3402,0,U,27858,999,23031,.68914587E-4,.503E-5,0
SWIFT,2004-047A,2026-06-09T14:47:28.853952,15.67614381,.00022206,20.5521,243.2700,174.5140,185.5330,0,U,28485,999,18567,.50671776E-3,.59106E-3,0
HINODE (SOLAR-B),2006-041A,2026-06-09T19:51:02.513952,14.68612866,.00163281,98.0549,177.0881,315.0393,44.9489,0,U,29479,999,5379,.1208296E-3,.654E-5,0
SHIJIAN-6 02A (SJ-6 02A),2006-046A,2026-06-09T23:12:54.441792,15.16857628,.00040459,97.6373,201.9795,141.2091,218.9433,0,U,29505,999,7117,.30419109E-3,.5919E-4,0
SHIJIAN-6 02B (SJ-6 02B),2006-046B,2026-06-09T22:45:47.953152,15.01358406,.00148662,97.7166,190.0517,81.2584,279.0323,0,U,29506,999,6965,.9915957E-4,.1219E-4,0
FGRST (GLAST),2008-029A,2026-06-09T15:11:33.699552,15.23911653,.00077141,25.5821,256.9339,235.0284,124.9530,0,U,33053,999,99468,.11419344E-3,.3177E-4,0
SDO,2010-005A,2026-06-09T10:58:19.824096,1.00270666,.00015715,34.6348,86.4608,53.7612,180.1782,0,U,36395,999,5998,0,-.63E-6,0
CRYOSAT 2,2010-013A,2026-06-09T20:16:37.815168,14.51896875,.00022117,92.0349,275.5171,86.6723,273.4738,0,U,36508,999,85701,.27006556E-4,.112E-5,0
X-SAT,2011-015C,2026-06-09T22:10:48.051264,14.25204161,.0014415,98.3509,138.2937,9.6666,350.4789,0,U,37389,999,78664,.82486573E-4,.153E-5,0
GCOM-W1 (SHIZUKU),2012-025A,2026-06-09T18:05:12.498432,14.57117755,.00018504,98.2020,101.4219,80.3151,339.5650,0,U,38337,999,74795,.10395372E-3,.423E-5,0
NUSTAR,2012-031A,2026-06-10T00:00:04.000320,15.08733169,.00078499,6.0253,88.0328,354.8632,189.3557,0,U,38358,999,130,.28542047E-3,.5475E-4,0
NEOSSAT,2013-009D,2026-06-09T18:04:23.725632,14.35823805,.0009781,98.4176,340.9627,268.7117,91.2949,0,U,39089,999,69567,.6134743E-4,.135E-5,0
BRITE-AUSTRIA,2013-009F,2026-06-09T18:07:44.518368,14.36539135,.00089679,98.3993,340.3753,261.6258,98.3912,0,U,39091,999,69598,.67785379E-4,.156E-5,0
IRIS,2013-033A,2026-06-09T13:19:39.392256,14.85870096,.00241405,97.9335,359.8563,347.4319,12.6291,0,U,39197,999,69924,.11710416E-3,.969E-5,0
HISAKI (SPRINT-A),2013-049A,2026-06-09T13:01:27.952032,13.55543891,.01368872,29.7202,258.8784,314.9019,44.0512,0,U,39253,999,63038,.82607207E-4,.126E-5,0
CASSIOPE,2013-055A,2026-06-09T19:30:12.585888,15.24513874,.02951942,80.9146,75.6708,87.1664,276.3310,0,U,39265,999,66654,.47656447E-3,.43263E-3,-.552815E-6
STSAT-3,2013-066G,2026-06-09T22:06:48.731040,15.02714083,.00110106,97.6213,130.9261,64.1840,296.0519,0,U,39422,999,68311,.22281009E-3,.2918E-4,0
SWARM B,2013-067A,2026-06-09T19:14:04.118784,15.28506758,.00033923,87.7440,344.5615,89.9723,270.1915,0,U,39451,999,68211,.11159809E-3,.3129E-4,0
