HST                     
1 20580U 90037B   26160.25429042  .00004810  00000+0  15014-3 0  9993
2 20580  28.4711 134.7882 0001992  63.4353 296.6447 15.30659901787355
POLAR                   
1 23802U 96013A   26160.33474726  .00000117  00000+0  00000+0 0  9992
2 23802  79.8443 227.1442 6462788 209.3515  89.3681  1.29846146144757
SWAS                    
1 25560U 98071A   26160.66069264  .00003594  00000+0  22956-3 0  9994
2 25560  69.8963 246.9275 0008950 266.7504  93.2636 15.09580136496138
CXO                     
1 25867U 99040B   26161.44248451  .00000667  00000+0  00000+0 0  9995
2 25867  56.0540 116.8503 7852548 310.2578   0.2529  0.37805334 17299
XMM-NEWTON              
1 25989U 99066A   26161.36780906  .00000089  00000+0  00000+0 0  9993
2 25989  64.5271 283.0748 4677764  65.0342   0.0416  0.50122831 22976
TERRA                   
1 25994U 99068A   26160.83634642  .00000339  00000+0  77920-4 0  9995
2 25994  97.9459 210.6738 0001032 222.6063 248.3946 14.61097233408530
CLUSTER II-FM7 (SAMBA)  
1 26410U 00041A   26161.44626665  .00004459  00000+0  00000+0 0  9993
2 26410 149.9132  49.6129 9048191 266.6863 359.9829  0.44840364 20284
CLUSTER II-FM8 (TANGO)  
1 26464U 00045B   26159.43359147  .00004389  00000+0  00000+0 0  9992
2 26464 150.1534  50.2668 9049658 267.1780   3.1902  0.44405778 20277
ODIN                    
1 26702U 01007A   26160.65885442  .00153746  00000+0  10960-2 0  9995
2 26702  97.3859 201.1295 0006387 152.3614 207.7991 15.73332521388215
TIMED                   
1 26998U 01055B   26160.71550413  .00001204  00000+0  11285-3 0  9992
2 26998  74.0678 250.0622 0000699 349.3341  10.7829 14.95278568329709
CORIOLIS                
1 27640U 03001A   26160.72788072  .00000092  00000+0  63623-4 0  9993
2 27640  98.7125 167.7265 0013042 231.4982 128.5026 14.19942820213163
SORCE                   
1 27651U 03004A   26160.70109652  .00002624  00000+0  19856-3 0  9998
2 27651  39.9917 304.3883 0017581 353.9939   6.0642 15.03673144270778
MOST                    
1 27843U 03031D   26160.74922729  .00000064  00000+0  49396-4 0  9992
2 27843  98.7045 168.5790 0008684 274.7342  85.2844 14.21320954189651
SCISAT 1                
1 27858U 03036A   26160.52723866  .00000503  00000+0  68915-4 0  9996
2 27858  73.9286 186.5623 0008681 255.6810 104.3402 14.81440170230311
SWIFT                   
1 28485U 04047A   26160.61630618  .00059106  00000+0  50672-3 0  9991
2 28485  20.5521 243.2700 0002220 174.5140 185.5330 15.67614381185674
HINODE (SOLAR-B)        
1 29479U 06041A   26160.82711243  .00000654  00000+0  12083-3 0  9996
2 29479  98.0549 177.0881 0016328 315.0393  44.9489 14.68612866 53794
SHIJIAN-6 02A (SJ-6 02A)
1 29505U 06046A   26160.96729678  .00005919  00000+0  30419-3 0  9999
2 29505  97.6373 201.9795 0004045 141.2091 218.9433 15.16857628 71177
SHIJIAN-6 02B (SJ-6 02B)
1 29506U 06046B   26160.94847168  .00001219  00000+0  99160-4 0  9991
2 29506  97.7166 190.0517 0014866  81.2584 279.0323 15.01358406 69651
FGRST (GLAST)           
1 33053U 08029A   26160.63302893  .00003177  00000+0  11419-3 0  9998
2 33053  25.5821 256.9339 0007714 235.0284 124.9530 15.23911653994685
SDO                     
1 36395U 10005A   26160.45717389 -.00000063  00000+0  00000+0 0  9999
2 36395  34.6348  86.4608 0001571  53.7612 180.1782  1.00270666 59982
CRYOSAT 2               
1 36508U 10013A   26160.84488212  .00000112  00000+0  27007-4 0  9992
2 36508  92.0349 275.5171 0002211  86.6723 273.4738 14.51896875857016
X-SAT                   
1 37389U 11015C   26160.92416726  .00000153  00000+0  82487-4 0  9991
2 37389  98.3509 138.2937 0014415   9.6666 350.4789 14.25204161786640
GCOM-W1 (SHIZUKU)       
1 38337U 12025A   26160.75361688  .00000423  00000+0  10395-3 0  9992
2 38337  98.2020 101.4219 0001850  80.3151 339.5650 14.57117755747953
NUSTAR                  
1 38358U 12031A   26161.00004630  .00005475  00000+0  28542-3 0  9997
2 38358   6.0253  88.0328 0007849 354.8632 189.3557 15.08733169  1308
NEOSSAT                 
1 39089U 13009D   26160.75305238  .00000135  00000+0  61347-4 0  9993
2 39089  98.4176 340.9627 0009781 268.7117  91.2949 14.35823805695670
BRITE-AUSTRIA           
1 39091U 13009F   26160.75537637  .00000156  00000+0  67785-4 0  9991
2 39091  98.3993 340.3753 0008967 261.6258  98.3912 14.36539135695989
IRIS                    
1 39197U 13033A   26160.55531704  .00000969  00000+0  11710-3 0  9990
2 39197  97.9335 359.8563 0024140 347.4319  12.6291 14.85870096699247
HISAKI (SPRINT-A)       
1 39253U 13049A   26160.54268463  .00000126  00000+0  82607-4 0  9997
2 39253  29.7202 258.8784 0136887 314.9019  44.0512 13.55543891630388
CASSIOPE                
1 39265U 13055A   26160.81264567  .00043263 -55282-6  47656-3 0  9991
2 39265  80.9146  75.6708 0295194  87.1664 276.3310 15.24513874666549
STSAT-3                 
1 39422U 13066G   26160.92139735  .00002918  00000+0  22281-3 0  9997
2 39422  97.6213 130.9261 0011010  64.1840 296.0519 15.02714083683110
SWARM B                 
1 39451U 13067A   26160.80143656  .00003129  00000+0  11160-3 0  9993
2 39451  87.7440 344.5615 0003392  89.9723 270.1915 15.28506758682117
